#dP2020  6 11  0  0  0.00000000      96 __u+U ITR00 FIT  IAC
## 2109 345600.00000000   900.00000000 59011 0.0000000000000
+  116   C06C07C08C09C10C11C12C13C14C16C19C20C21C22C23C24C25
+        C26C27C28C29C30C32C33C34C35C36C37C39C40C43C44C45C46
+        E01E02E03E04E05E07E08E09E11E12E13E14E15E18E19E21E24
+        E25E26E27E30E31E33E36G01G02G03G04G05G06G07G08G09G10
+        G11G12G13G14G15G16G17G18G19G20G21G22G23G24G25G26G27
+        G28G29G30G31G32J01J02J03R01R02R03R04R05R07R08R09R11
+        R12R13R14R15R16R17R18R19R20R21R22R23R24R26  0  0  0
++         8  9  7  7  9  8  7  9  7  8  7  7  7  7  8  8  7
++         6  9  8  7  8  9  7  7  7  9  9  7 13  9 10  9  8
++         7  7  7  8  8  6  6  7  8  7  7  7  7  6  8  7  7
++         7  6  7  6  7  6  7  6  7  7  7  6  7  6  7  6  7
++         6  6  7  7  7  7  7  8  7  7  6  7  6  6  8  7  7
++         6  6  7  6  7 18 11 10  7  7  7  8  7  7  8  7  7
++         6  7  6  6  7  7  7  7  6  7  9  6  8  7  0  0  0
%c M  cc GPS ccc cccc cccc cccc cccc ccccc ccccc ccccc ccccc
%c cc cc ccc ccc cccc cccc cccc cccc ccccc ccccc ccccc ccccc
%f  0.0000000  0.000000000  0.00000000000  0.000000000000000
%f  0.0000000  0.000000000  0.00000000000  0.000000000000000
%i    0    0    0    0      0      0      0      0         0
%i    0    0    0    0      0      0      0      0         0
/* INFORMATION & ANALYSIS CENTER (IAC)      ULTRA-RAPID DATA
/* S/V CLOCKS ARE ALIGNED TO GNSS TIME                      
/* G:C1WC2W R:C1PC2P E:C1XC5X C:C2IC6I J:C1CC2S             
/* PCV:IGS14_2101 OL/AL:FES2004  NONE     YN ORB:CoN CLK:CoN
*  2020 06 11 20 45  0.00000000
PC06 -24075.426477  28912.260281  18999.758349    751.463176
PC07 -11774.171678  36845.393093  17573.867495     54.540282
PC08 -10214.687357  18916.840961 -36185.932185   -305.820544
PC09  -7611.123194  28201.584706  30554.066240 999999.999999
PC10   -560.081325  42200.337490   4296.688914   -264.948388
PC11  20108.597711   7118.027169 -17914.198609   -422.369888
PC12   1009.224459  15491.185616 -23164.758148    398.304203
PC13   5051.502862  26570.748869 -32193.026933    485.411846
PC14  11668.161719  13967.842957  21204.147850    520.562180
PC16 -21793.233507  29270.569724  21039.271587   -619.904435
PC19 -15522.886725  -3516.503072 -22890.976423    441.140270
PC20  -6487.833421 -21315.274164 -16758.611033   -854.725178
PC21  -6798.732030  27077.326654    420.100219   -515.519141
PC22 -15777.336173  16717.547830 -15836.125752   -787.353795
PC23  15936.678752  -6157.302431 -22059.148268   -855.650888
PC24  15919.434201  22144.806734   5867.140410   -794.456917
PC25  22966.972142  10443.545237 -11910.422513   -648.537318
PC26   1121.181180  20116.770741  19292.510102    714.605320
PC27   9675.168279 -16741.527991  20108.227230    345.845601
PC28  24936.311536 -10775.576734   6374.458796   -215.886302
PC29 -25626.691496   -495.049544  11021.992309    241.136885
PC30 -11364.960277 -12650.181374  22115.780410    330.580182
PC32   6618.354436 -27099.341377   -382.352904   -879.978642
PC33  15559.791645   3570.742446  22900.403856   -815.428405
PC34  11882.733185  12482.667886 -21963.126092   -802.302024
PC35 -24618.837474  11543.906268  -6203.106878   -801.314503
PC36 -22732.000950 -11153.897659  11745.945059   -844.227487
PC37    -69.179013 -19838.229704 -19608.265580   -850.151675
PC39 -18049.788833  30742.424068  22426.102777 999999.999999
PC40  -7193.741327  40596.745475   9272.298944     51.635475
PC43  25536.978244    922.465727 -11250.327920   -234.316615
PC44  -9229.873556  17151.388946 -19979.946635 999999.999999
PC45 -15848.667706   6121.189306  22147.647822 999999.999999
PC46 -16376.813267 -21957.630288  -5390.694300 999999.999999
PE01  16785.507499  20381.131717 -13383.041778   -875.714121
PE02 -16813.315840 -20311.647211  13456.671090    139.756787
PE03 -14121.919552  -9795.090037 -24093.406708   -308.775692
PE04  22936.332510  -9263.760112  16266.896308   -543.942474
PE05   3100.831406 -23369.046705 -17889.364911   -372.436012
PE07 -18356.726942  23193.454534   1313.717074   -394.385181
PE08 -22828.849112   9704.243730 -16153.110521   6165.159960
PE09  18166.617869 -23316.211555  -1382.874865   6031.612160
PE11  15910.875288 -11940.006040  21915.698445   3400.809636
PE12  28774.893251    217.947931   6983.232153   5759.965256
PE13 -16061.264045  11835.777834 -21862.239819    401.521788
PE14  -1344.136795 -15711.749269  17207.702454  -1046.191518
PE15 -28707.719576     23.496464  -7197.524234    863.849078
PE18   4997.536231  20670.095370 -24769.392092  -1146.978164
PE19  12441.540131  11613.508369  24229.536270      0.691950
PE21   6814.200990  28392.510805   4872.771965   -604.045350
PE24   7696.370587 -19734.422791 -20693.607005   5407.620302
PE25  -6723.666945 -28387.081940  -4997.956241   -512.001450
PE26   6373.961674  16894.985052 -23454.809503   3084.078054
PE27  -7379.980102  19958.098509  20578.492078    200.522433
PE30 -17302.156866   -653.616290  23999.807084   3833.874197
PE31  17163.270801    159.623490 -24110.155278   -472.836386
PE33  24501.288121  11804.989823 -11694.949425   -466.210508
PE36  -6000.844248 -16697.730525  23691.302224    548.222214
PG01  21008.862601  15170.674934  -6817.129348      5.931730
PG02  -1828.153719 -16685.179639  21236.285376   -470.613303
PG03  12173.788881  17881.865386  15417.106064   -205.758442
PG04  16298.739485   6194.814613  20057.413701   -101.238519
PG05  -1592.027074 -26316.416949   2009.735501    -14.461310
PG06  10859.450960 -10952.803172  21678.971388   -287.124732
PG07  24486.661577   4195.220055  -9741.230178   -302.250199
PG08   5787.356824  14155.505420 -21680.412939    -37.211165
PG09  22554.420887  -4601.968463  13218.406331   -234.533466
PG10 -12063.970863  13746.612842 -19084.149004   -368.480737
PG11  14590.038053  13494.086802 -17969.592695   -251.467229
PG12 -10504.477614 -18945.475014  15236.926952    107.208618
PG13   3493.121599 -17295.465048 -19939.626470     17.528117
PG14 -16359.571033  18097.697279  10620.178428     -6.568231
PG15  -8417.759262 -13844.578817 -21333.532148   -224.922080
PG16    208.876809  26312.998755   -541.603048   -169.287108
PG17  21748.094381 -15088.068685   2285.726053    279.289228
PG18 -24176.506985  -4219.474499 -10198.521116    217.367257
PG19  18252.164443 -16895.420670   8974.542057   -146.492864
PG20 -15838.441003   1476.177261 -21358.288719    527.533870
PG21 -20407.600552   3925.201311 -15646.549996     10.374547
PG22  10216.555555  23242.273438   8262.406895   -778.449150
PG23  23589.288932 -10474.078524   7521.305064 999999.999999
PG24 -20488.100818 -14992.965979  -8612.486938    -14.203077
PG25 -14669.628137  -8989.097204  20069.054387     12.153499
PG26  -5923.014630  22861.010607  11894.249552    223.596477
PG27  -5509.545240  18658.619273 -18066.841154   -318.030414
PG28  12125.364320 -14974.446685 -17765.536314    709.492463
PG29 -21051.394034     66.899618  16165.503135   -125.661630
PG30  19034.743945  -4964.865198 -17898.531600   -239.649453
PG31 -10000.618851  11914.526640  21524.302258    -48.490530
PG32 -20560.210418  16530.048196   2369.948267    298.204438
PJ01 -23894.714655  31916.797006  -9162.191462   -288.812746
PJ02 -24804.573869  22723.805727  30312.036642     -0.463439
PJ03 -34777.501836  20908.951649  -6610.253306     -3.990676
PR01   3020.245699  16148.668743  19526.780107     62.927064
PR02  13366.619965  -4478.376896  21317.419962    431.128308
PR03  14004.653814 -19383.379089   8990.964020     16.619867
PR04   6702.566078 -23146.891122  -8335.084396     52.408920
PR05  -4272.681874 -13861.587411 -20971.717729     52.136825
PR07 -13829.415233  19713.086928  -8315.216272    -37.467877
PR08  -6613.083388  23151.890543   8462.072189    -52.810323
PR09 -14946.041498  -4122.071582  20247.172077    137.531455
PR11   6349.862695  20684.806082  13565.786105    -26.762821
PR12  15412.238709  20145.799942  -2586.403852    138.284133
PR13  16139.937747   7959.847237 -18096.429145    -39.870672
PR14   7199.134927  -8836.854217 -22806.483569     52.183242
PR15  -5719.844749 -20329.157672 -14284.396448    106.769393
PR16 -16050.304892 -19649.908130   3171.184551     -4.093717
PR17  20463.385395  -7547.471922  13199.905187    332.304295
PR18   4800.261482 -10595.797972  22716.492343     38.503836
PR19 -12905.645197  -8452.941713  20308.386771    -97.502768
PR20 -25086.291284   -822.164106   4412.680083   -414.021410
PR21 -19870.971284   7768.181006 -14004.856678   -130.730552
PR22  -1895.932274  10514.722721 -23155.428753   5261.971252
PR23  18976.399005   5924.367145 -15998.735353    311.541543
PR24  25240.320204    376.350985  -3621.747343      2.312937
PR26 -23705.678911  -2497.940924   9122.789052   -393.289326
EOF
